MEAN_MOTION;ECCENTRICITY;INCLINATION;RA_OF_ASC_NODE;ARG_OF_PERICENTER;MEAN_ANOMALY;BSTAR;MEAN_MOTION_DOT;MEAN_MOTION_DDOT;TYPE
12.62266662;8.51E-5;52.0101;34.0989;39.2705;348.3536;3.923E-5;-9.7E-7;0;Globalstar
12.6226664;8.69E-5;52.0101;33.0835;39.9852;64.4562;2.1799E-5;-1.0E-6;0;Globalstar
12.62266634;8.9E-5;52.0102;30.9473;41.0495;14.1477;-4.1526E-6;-1.05E-6;0;Globalstar
12.62266646;9.06E-5;52.0103;29.4386;41.6878;107.0146;-5.128E-6;-1.05E-6;0;Globalstar
12.62266651;9.24E-5;52.0104;28.0619;42.4293;2.7156;-7.6864E-6;-1.05E-6;0;Globalstar
12.62266675;9.37E-5;52.0104;26.2981;43.3868;116.3136;-4.8819E-6;-1.05E-6;0;Globalstar
12.62266677;9.46E-5;52.0104;25.1903;43.6706;330.7739;-5.3436E-6;-1.05E-6;0;Globalstar
12.62266681;9.63E-5;52.0105;23.6728;44.9441;76.1361;-4.9502E-6;-1.05E-6;0;Globalstar
12.62266723;0.0001014;52.0105;19.1492;47.6249;350.0883;2.8265E-5;-9.9E-7;0;Globalstar
12.62266709;0.0001026;52.0105;18.6359;48.2003;36.1312;9.1594E-6;-1.02E-6;0;Globalstar
12.62266765;0.0001047;52.0105;17.6192;48.5058;114.4741;5.5091E-5;-9.4E-7;0;Globalstar
12.62266731;0.0001083;52.0106;14.7358;50.7123;99.1127;4.9736E-5;-9.5E-7;0;Globalstar
12.62266711;0.0001143;52.0108;9.4823;54.6799;22.2206;5.34E-5;-9.4E-7;0;Globalstar
12.62266717;0.000115;52.0108;8.9809;54.8642;50.9145;6.2494E-5;-9.3E-7;0;Globalstar
12.62266737;0.0001154;52.0108;8.7355;55.1753;57.3034;8.064E-5;-8.9E-7;0;Globalstar
12.62266774;0.0001184;52.0108;5.8225;57.2008;86.2775;9.2172E-5;-8.7E-7;0;Globalstar
12.62266809;0.0001205;52.0109;3.4446;59.1347;36.2302;9.3557E-5;-8.7E-7;0;Globalstar
12.62266843;0.0001217;52.0108;2.6785;59.6719;99.9407;0.00012477;-8.1E-7;0;Globalstar
12.62266903;0.0001244;52.0108;0.3218;60.9584;18.9409;0.00013832;-7.9E-7;0;Globalstar
12.62266947;0.0001254;52.0108;359.5442;61.4374;99.9839;0.00017645;-7.2E-7;0;Globalstar
12.62266937;0.0001262;52.0108;358.6536;61.9566;349.8823;0.00014012;-7.9E-7;0;Globalstar
12.62266965;0.0001275;52.0108;357.4192;63.0391;32.6644;0.00014564;-7.8E-7;0;Globalstar
12.62266964;0.0001281;52.0107;356.4242;63.7196;78.1803;0.00012595;-8.1E-7;0;Globalstar
12.62266965;0.0001289;52.0107;355.5117;64.2554;0.7587;0.00010972;-8.4E-7;0;Globalstar
12.62267018;0.0001306;52.0107;354.2977;65.4715;12.903;0.00013328;-8.0E-7;0;Globalstar
12.62267046;0.0001323;52.0106;352.6281;66.4056;345.8168;0.00013183;-8.0E-7;0;Globalstar
12.62267065;0.0001335;52.0106;351.3969;67.3962;23.8686;0.00013056;-8.0E-7;0;Globalstar
12.62267105;0.0001353;52.0105;349.4861;68.6137;356.8719;0.00014631;-7.8E-7;0;Globalstar
12.62267165;0.0001371;52.0104;348.2723;69.5005;9.0012;0.00017649;-7.2E-7;0;Globalstar
12.62267194;0.0001399;52.0103;345.3701;71.6563;21.9208;0.00016792;-7.4E-7;0;Globalstar
12.62267176;0.0001401;52.0103;345.1157;71.761;41.7033;0.00014692;-7.7E-7;0;Globalstar
12.62267229;0.0001423;52.0102;342.2462;73.63;5.9342;0.00016291;-7.5E-7;0;Globalstar
12.62267213;0.0001424;52.0102;341.9911;73.9248;26.7125;0.00015128;-7.7E-7;0;Globalstar
12.62267225;0.0001445;52.0101;339.355;75.667;2.3421;0.00013997;-7.9E-7;0;Globalstar
12.62267299;0.0001471;52.0099;335.9655;77.9874;22.846;0.00017553;-7.2E-7;0;Globalstar
12.62267301;0.0001475;52.0099;335.6932;78.1524;69.3009;0.00017653;-7.2E-7;0;Globalstar
12.62267305;0.000149;52.0098;333.3296;79.7275;358.204;0.0001499;-7.7E-7;0;Globalstar
12.62267287;0.000151;52.0097;330.195;81.739;358.1134;0.00010346;-8.5E-7;0;Globalstar
12.6226731;0.0001517;52.0096;329.9396;82.065;19.2478;0.00012065;-8.2E-7;0;Globalstar
12.62267346;0.0001526;52.0096;329.1778;82.6276;76.6311;0.00012877;-8.1E-7;0;Globalstar
12.62267384;0.0001539;52.0095;327.0671;84.1485;347.6706;0.00012792;-8.1E-7;0;Globalstar
12.62267396;0.0001545;52.0095;326.5227;84.4823;80.4175;0.00012972;-8.1E-7;0;Globalstar
12.62267405;0.0001561;52.0094;323.9135;86.3753;15.6884;9.2683E-5;-8.7E-7;0;Globalstar
12.62267449;0.0001568;52.0093;323.1561;86.7757;66.5971;0.00010632;-8.5E-7;0;Globalstar
12.62267472;0.0001582;52.0093;321.0107;88.3637;29.4783;9.3848E-5;-8.7E-7;0;Globalstar
12.62267504;0.0001586;52.0091;319.1415;89.8995;299.7758;9.844E-5;-8.6E-7;0;Globalstar
12.62267512;0.0001594;52.009;317.888;90.8857;10.8896;9.6956E-5;-8.6E-7;0;Globalstar
12.62267551;0.0001607;52.0088;315.22;92.8932;33.6553;0.00010225;-8.5E-7;0;Globalstar
12.62267567;0.0001622;52.0086;312.1168;94.7988;346.8041;0.00010987;-8.4E-7;0;Globalstar
12.62267565;0.0001623;52.0085;311.8624;94.8822;6.6282;0.00011376;-8.3E-7;0;Globalstar
12.62267608;0.0001634;52.0084;309.2263;96.9939;341.6083;0.0001322;-8.0E-7;0;Globalstar
12.62267614;0.0001643;52.0082;305.8362;99.4309;2.3332;0.00013933;-7.9E-7;0;Globalstar
12.62267682;0.0001652;52.0081;302.7123;101.8388;345.6337;0.00016742;-7.4E-7;0;Globalstar
12.6226768;0.0001649;52.0081;302.4513;101.6645;15.5976;0.00016756;-7.4E-7;0;Globalstar
12.62267682;0.0001653;52.008;299.8099;103.5642;358.5816;0.00014175;-7.8E-7;0;Globalstar
12.62267752;0.0001653;52.008;297.6856;104.7046;290.2319;0.00015233;-7.6E-7;0;Globalstar
12.62267811;0.0001666;52.008;296.3996;106.3444;49.3521;0.00016622;-7.4E-7;0;Globalstar
12.62267824;0.0001666;52.008;293.5125;108.5554;39.2514;0.00012081;-8.2E-7;0;Globalstar
12.62267766;0.0001656;52.008;291.1482;109.7355;329.4261;3.3503E-5;-9.8E-7;0;Globalstar
12.62267761;0.0001653;52.0079;288.7637;111.366;289.1016;5.6006E-6;-1.03E-6;0;Globalstar
12.62267737;0.0001654;52.0079;287.514;112.3741;354.5404;-2.2809E-5;-1.08E-6;0;Globalstar
12.62267731;0.0001648;52.0078;285.6341;113.989;280.6837;-5.101E-5;-1.13E-6;0;Globalstar
12.62267777;0.0001648;52.0078;284.3728;115.1924;3.3169;-2.0436E-5;-1.07E-6;0;Globalstar
12.62267786;0.0001644;52.0078;282.4957;116.9855;284.9916;-2.842E-5;-1.09E-6;0;Globalstar
12.62267798;0.0001642;52.0077;281.2029;117.7191;55.0866;-4.3057E-7;-1.04E-6;0;Globalstar
12.62267811;0.0001638;52.0077;279.0963;119.5917;319.4217;1.2303E-5;-1.02E-6;0;Globalstar
12.62267793;0.0001628;52.0077;276.2059;121.1459;314.6701;3.8341E-5;-9.7E-7;0;Globalstar
12.62267792;0.0001625;52.0077;275.432;121.9521;29.8733;4.2134E-5;-9.6E-7;0;Globalstar
12.62267809;0.0001617;52.0077;273.3099;123.84;317.3816;5.1719E-5;-9.5E-7;0;Globalstar
12.62267811;0.0001617;52.0077;273.0366;124.1105;5.2035;5.7907E-5;-9.3E-7;0;Globalstar
12.62267803;0.0001606;52.0078;270.1798;126.1299;309.8506;6.6755E-5;-9.2E-7;0;Globalstar
12.62267794;0.0001602;52.0078;269.6794;126.4096;337.1097;7.236E-5;-9.1E-7;0;Globalstar
12.62267827;0.0001586;52.0078;266.2747;129.7682;18.9277;7.7161E-5;-9.0E-7;0;Globalstar
12.62267839;0.0001571;52.0079;263.1479;132.4043;6.4501;5.5904E-5;-9.4E-7;0;Globalstar
12.62267845;0.0001569;52.0079;262.8945;132.6726;24.6986;4.9463E-5;-9.5E-7;0;Globalstar
12.62267851;0.0001553;52.0079;260.007;135.4697;14.7028;1.1531E-5;-1.02E-6;0;Globalstar
12.62267843;0.0001548;52.008;258.1281;137.3133;299.1066;-2.2046E-5;-1.08E-6;0;Globalstar
12.62267842;0.0001537;52.008;257.1227;137.9369;0.3038;-2.566E-5;-1.08E-6;0;Globalstar
12.6226783;0.0001523;52.008;254.9928;139.6916;299.7746;-6.517E-5;-1.15E-6;0;Globalstar
12.62267823;0.0001488;52.0084;251.6018;143.2109;321.4374;-9.3472E-7;-1.04E-6;0;Globalstar
12.62267822;0.000149;52.008;248.9668;144.7583;295.3234;-7.1543E-5;-1.17E-6;0;Globalstar
12.62267802;0.000147;52.0079;246.0768;147.0859;289.4765;-6.1113E-5;-1.15E-6;0;Globalstar
12.62267809;0.0001463;52.0079;245.3031;147.6357;4.6208;-3.4434E-5;-1.1E-6;0;Globalstar
12.62267811;0.000145;52.0079;242.9414;150.3017;289.4016;-1.7076E-5;-1.07E-6;0;Globalstar
12.62267809;0.0001449;52.0079;242.6832;150.6687;314.696;-8.4184E-6;-1.05E-6;0;Globalstar
12.62267832;0.0001441;52.0079;241.9308;151.1429;358.0746;2.008E-5;-1.0E-6;0;Globalstar
12.62267872;0.0001419;52.0079;239.0441;154.0723;346.7721;8.5917E-5;-8.8E-7;0;Globalstar
12.62267946;0.0001394;52.0079;235.905;157.2344;352.248;0.00014995;-7.7E-7;0;Globalstar
12.62268003;0.0001374;52.0079;233.0183;160.3772;340.8109;0.00019369;-6.9E-7;0;Globalstar
12.62268047;0.0001362;52.0079;230.8902;162.7666;277.0372;0.00019412;-6.9E-7;0;Globalstar
12.62268094;0.0001335;52.008;227.4981;165.9898;300.5626;0.00017543;-7.2E-7;0;Globalstar
12.62268172;0.0001308;52.0079;223.8527;170.0434;341.6145;0.00013653;-7.9E-7;0;Globalstar
12.62268178;0.0001292;52.0079;221.4725;172.09;294.8089;9.8082E-5;-8.6E-7;0;Globalstar
12.62268168;0.0001285;52.0079;220.9667;172.5309;329.829;7.602E-5;-9.0E-7;0;Globalstar
12.62268182;0.0001276;52.0078;219.6041;174.122;203.5326;5.8194E-5;-9.3E-7;0;Globalstar
12.62268208;0.000127;52.0078;218.5837;175.134;286.7137;6.1461E-5;-9.3E-7;0;Globalstar
12.62268212;0.0001266;52.0077;217.8281;175.93;334.4125;4.7035E-5;-9.5E-7;0;Globalstar
12.62268216;0.0001258;52.0077;216.4704;177.4146;200.885;3.6551E-5;-9.7E-7;0;Globalstar
12.62268217;0.0001247;52.0076;214.9414;178.9205;323.2573;2.8332E-5;-9.9E-7;0;Globalstar
12.62268235;0.000123;52.0074;212.0618;182.108;301.1962;4.1283E-5;-9.6E-7;0;Globalstar
12.62268231;0.0001228;52.0074;211.8013;182.4651;329.9058;3.3638E-5;-9.8E-7;0;Globalstar
12.6226826;0.0001211;52.0072;208.9153;185.7965;317.1309;7.6498E-5;-9.0E-7;0;Globalstar
12.62268277;0.0001195;52.0071;206.0359;189.2014;294.4929;0.00011323;-8.3E-7;0;Globalstar
12.62268296;0.0001185;52.007;203.8972;191.6938;246.3157;0.00013536;-8.0E-7;0;Globalstar
12.62268321;0.0001175;52.007;202.8896;192.9101;310.1226;0.00016454;-7.4E-7;0;Globalstar
12.62268361;0.0001161;52.0069;199.7492;196.8722;316.6507;0.00018717;-7.0E-7;0;Globalstar
12.62268427;0.0001143;52.0068;196.6242;200.629;300.4457;0.0002054;-6.7E-7;0;Globalstar
12.62268458;0.0001128;52.0067;194.2447;203.4426;251.735;0.00019246;-6.9E-7;0;Globalstar
12.62268479;0.0001124;52.0067;193.7216;204.1117;312.3235;0.0001925;-6.9E-7;0;Globalstar
12.62268508;0.0001122;52.0066;192.3468;205.8761;204.0219;0.00018282;-7.1E-7;0;Globalstar
12.62268544;0.0001109;52.0066;190.5966;207.979;296.0965;0.0001589;-7.5E-7;0;Globalstar
12.62268542;0.0001105;52.0065;189.2229;209.4591;186.3574;0.00011935;-8.2E-7;0;Globalstar
12.62268574;0.0001097;52.0065;188.2188;210.7473;244.8878;0.0001269;-8.1E-7;0;Globalstar
